STARLINK-33960          
1 63966U 25099Q   25265.67649075  .00052578  00000+0  19044-2 0  9995
2 63966  43.0026  44.8205 0001780 271.0619  89.0029 15.27617612 21641
STARLINK-34153          
1 63967U 25099R   25265.80084743  .00066828  00000+0  24152-2 0  9995
2 63967  43.0037  44.0383 0001663 289.4113  70.6559 15.27592339 21669
STARLINK-33963          
1 63968U 25099S   25265.67392219  .00071399  00000+0  25776-2 0  9993
2 63968  43.0029  44.8036 0000811 266.5662  93.5097 15.27599789 21648
STARLINK-34112          
1 63969U 25099T   25265.86236709  .00050785  00000+0  18404-2 0  9992
2 63969  43.0008  43.6362 0001412 258.9596 101.1097 15.27614009 21676
STARLINK-34084          
1 63970U 25099U   25265.66236183  .00061961  00000+0  22390-2 0  9995
2 63970  43.0005  44.7137 0000592 263.4525  96.6259 15.27628752 21643
STARLINK-34138          
1 63971U 25099V   25266.08470723  .00064055  00000+0  23108-2 0  9998
2 63971  43.0093  39.2616 0002834 264.8664  95.1864 15.27667895 21740
STARLINK-34115          
1 63972U 25099W   25266.07442660  .00066220  00000+0  23900-2 0  9993
2 63972  43.0041  39.1863 0002318 279.2064  80.8526 15.27639669 21742
STARLINK-34028          
1 63973U 25099X   25266.10398737  .00055663  00000+0  20163-2 0  9990
2 63973  43.0033  39.4056 0001665 268.0538  92.0123 15.27592175 21745
STARLINK-33942          
1 63974U 25099Y   25266.10012990  .00042799  00000+0  15540-2 0  9994
2 63974  43.0058  39.3775 0001385 271.3102  88.7591 15.27619549 21749
STARLINK-34139          
1 63975U 25099Z   25266.09628486  .00058077  00000+0  20997-2 0  9994
2 63975  43.0063  39.3499 0001320 276.0538  84.0163 15.27639582 21656
STARLINK-34090          
1 63976U 25099AA  25266.09241426  .00057115  00000+0  20658-2 0  9996
2 63976  43.0060  39.3195 0003628 272.9531  87.0906 15.27627759 21659
STARLINK-34105          
1 63977U 25099AB  25266.08985338  .00056009  00000+0  20268-2 0  9991
2 63977  43.0077  39.3007 0002158 280.0667  79.9941 15.27622848 21650
STARLINK-33642          
1 63978U 25099AC  25266.08214026  .00077699  00000+0  28024-2 0  9997
2 63978  43.0058  39.2404 0000330  15.5502 344.5360 15.27592622 21651
STARLINK-34045          
1 63979U 25099AD  25265.68596761  .00044924  00000+0  16312-2 0  9994
2 63979  43.0060  41.4248 0002184 272.0559  88.0042 15.27597069 21597
STARLINK-33871          
1 63994U 25101A   25266.18341470  .00054199  00000+0  19628-2 0  9994
2 63994  43.0057 224.2611 0000944 264.8145  95.2599 15.27611657 21369
STARLINK-34154          
1 63995U 25101B   25266.22052516  .00059559  00000+0  21525-2 0  9994
2 63995  43.0042 223.6918 0001694 265.6241  94.4417 15.27640217 21449
