[{"OBJECT_NAME":"STARLINK-33960","OBJECT_ID":"2025-099Q","EPOCH":"2025-09-22T16:14:08.800800","MEAN_MOTION":15.27617612,"ECCENTRICITY":0.00017805,"INCLINATION":43.0026,"RA_OF_ASC_NODE":44.8205,"ARG_OF_PERICENTER":271.0619,"MEAN_ANOMALY":89.0029,"EPHEMERIS_TYPE":0,"CLASSIFICATION_TYPE":"U","NORAD_CAT_ID":63966,"ELEMENT_SET_NO":999,"REV_AT_EPOCH":2164,"BSTAR":0.0019043847,"MEAN_MOTION_DOT":0.00052578,"MEAN_MOTION_DDOT":0},{"OBJECT_NAME":"STARLINK-34153","OBJECT_ID":"2025-099R","EPOCH":"2025-09-22T19:13:13.217952","MEAN_MOTION":15.27592339,"ECCENTRICITY":0.00016632,"INCLINATION":43.0037,"RA_OF_ASC_NODE":44.0383,"ARG_OF_PERICENTER":289.4113,"MEAN_ANOMALY":70.6559,"EPHEMERIS_TYPE":0,"CLASSIFICATION_TYPE":"U","NORAD_CAT_ID":63967,"ELEMENT_SET_NO":999,"REV_AT_EPOCH":2166,"BSTAR":0.0024151916,"MEAN_MOTION_DOT":0.00066828,"MEAN_MOTION_DDOT":0},{"OBJECT_NAME":"STARLINK-33963","OBJECT_ID":"2025-099S","EPOCH":"2025-09-22T16:10:26.877216","MEAN_MOTION":15.27599789,"ECCENTRICITY":8.11e-5,"INCLINATION":43.0029,"RA_OF_ASC_NODE":44.8036,"ARG_OF_PERICENTER":266.5662,"MEAN_ANOMALY":93.5097,"EPHEMERIS_TYPE":0,"CLASSIFICATION_TYPE":"U","NORAD_CAT_ID":63968,"ELEMENT_SET_NO":999,"REV_AT_EPOCH":2164,"BSTAR":0.0025775801,"MEAN_MOTION_DOT":0.00071399,"MEAN_MOTION_DDOT":0},{"OBJECT_NAME":"STARLINK-34112","OBJECT_ID":"2025-099T","EPOCH":"2025-09-22T20:41:48.516576","MEAN_MOTION":15.27614009,"ECCENTRICITY":0.00014127,"INCLINATION":43.0008,"RA_OF_ASC_NODE":43.6362,"ARG_OF_PERICENTER":258.9596,"MEAN_ANOMALY":101.1097,"EPHEMERIS_TYPE":0,"CLASSIFICATION_TYPE":"U","NORAD_CAT_ID":63969,"ELEMENT_SET_NO":999,"REV_AT_EPOCH":2167,"BSTAR":0.0018404493,"MEAN_MOTION_DOT":0.00050785,"MEAN_MOTION_DDOT":0},{"OBJECT_NAME":"STARLINK-34084","OBJECT_ID":"2025-099U","EPOCH":"2025-09-22T15:53:48.062112","MEAN_MOTION":15.27628752,"ECCENTRICITY":5.926e-5,"INCLINATION":43.0005,"RA_OF_ASC_NODE":44.7137,"ARG_OF_PERICENTER":263.4525,"MEAN_ANOMALY":96.6259,"EPHEMERIS_TYPE":0,"CLASSIFICATION_TYPE":"U","NORAD_CAT_ID":63970,"ELEMENT_SET_NO":999,"REV_AT_EPOCH":2164,"BSTAR":0.0022389764,"MEAN_MOTION_DOT":0.00061961,"MEAN_MOTION_DDOT":0},{"OBJECT_NAME":"STARLINK-34138","OBJECT_ID":"2025-099V","EPOCH":"2025-09-23T02:01:58.704672","MEAN_MOTION":15.27667895,"ECCENTRICITY":0.00028346,"INCLINATION":43.0093,"RA_OF_ASC_NODE":39.2616,"ARG_OF_PERICENTER":264.8664,"MEAN_ANOMALY":95.1864,"EPHEMERIS_TYPE":0,"CLASSIFICATION_TYPE":"U","NORAD_CAT_ID":63971,"ELEMENT_SET_NO":999,"REV_AT_EPOCH":2174,"BSTAR":0.0023107715,"MEAN_MOTION_DOT":0.00064055,"MEAN_MOTION_DDOT":0},{"OBJECT_NAME":"STARLINK-34115","OBJECT_ID":"2025-099W","EPOCH":"2025-09-23T01:47:10.458240","MEAN_MOTION":15.27639669,"ECCENTRICITY":0.00023185,"INCLINATION":43.0041,"RA_OF_ASC_NODE":39.1863,"ARG_OF_PERICENTER":279.2064,"MEAN_ANOMALY":80.8526,"EPHEMERIS_TYPE":0,"CLASSIFICATION_TYPE":"U","NORAD_CAT_ID":63972,"ELEMENT_SET_NO":999,"REV_AT_EPOCH":2174,"BSTAR":0.0023899702,"MEAN_MOTION_DOT":0.0006622,"MEAN_MOTION_DDOT":0},{"OBJECT_NAME":"STARLINK-34028","OBJECT_ID":"2025-099X","EPOCH":"2025-09-23T02:29:44.508768","MEAN_MOTION":15.27592175,"ECCENTRICITY":0.00016653,"INCLINATION":43.0033,"RA_OF_ASC_NODE":39.4056,"ARG_OF_PERICENTER":268.0538,"MEAN_ANOMALY":92.0123,"EPHEMERIS_TYPE":0,"CLASSIFICATION_TYPE":"U","NORAD_CAT_ID":63973,"ELEMENT_SET_NO":999,"REV_AT_EPOCH":2174,"BSTAR":0.0020162936,"MEAN_MOTION_DOT":0.00055663,"MEAN_MOTION_DDOT":0},{"OBJECT_NAME":"STARLINK-33942","OBJECT_ID":"2025-099Y","EPOCH":"2025-09-23T02:24:11.223360","MEAN_MOTION":15.27619549,"ECCENTRICITY":0.00013853,"INCLINATION":43.0058,"RA_OF_ASC_NODE":39.3775,"ARG_OF_PERICENTER":271.3102,"MEAN_ANOMALY":88.7591,"EPHEMERIS_TYPE":0,"CLASSIFICATION_TYPE":"U","NORAD_CAT_ID":63974,"ELEMENT_SET_NO":999,"REV_AT_EPOCH":2174,"BSTAR":0.0015539571,"MEAN_MOTION_DOT":0.00042799,"MEAN_MOTION_DDOT":0},{"OBJECT_NAME":"STARLINK-34139","OBJECT_ID":"2025-099Z","EPOCH":"2025-09-23T02:18:39.011904","MEAN_MOTION":15.27639582,"ECCENTRICITY":0.000132,"INCLINATION":43.0063,"RA_OF_ASC_NODE":39.3499,"ARG_OF_PERICENTER":276.0538,"MEAN_ANOMALY":84.0163,"EPHEMERIS_TYPE":0,"CLASSIFICATION_TYPE":"U","NORAD_CAT_ID":63975,"ELEMENT_SET_NO":999,"REV_AT_EPOCH":2165,"BSTAR":0.0020996544,"MEAN_MOTION_DOT":0.00058077,"MEAN_MOTION_DDOT":0},{"OBJECT_NAME":"STARLINK-34090","OBJECT_ID":"2025-099AA","EPOCH":"2025-09-23T02:13:04.592064","MEAN_MOTION":15.27627759,"ECCENTRICITY":0.00036285,"INCLINATION":43.006,"RA_OF_ASC_NODE":39.3195,"ARG_OF_PERICENTER":272.9531,"MEAN_ANOMALY":87.0906,"EPHEMERIS_TYPE":0,"CLASSIFICATION_TYPE":"U","NORAD_CAT_ID":63976,"ELEMENT_SET_NO":999,"REV_AT_EPOCH":2165,"BSTAR":0.0020657731,"MEAN_MOTION_DOT":0.00057115,"MEAN_MOTION_DDOT":0},{"OBJECT_NAME":"STARLINK-34105","OBJECT_ID":"2025-099AB","EPOCH":"2025-09-23T02:09:23.332032","MEAN_MOTION":15.27622848,"ECCENTRICITY":0.00021588,"INCLINATION":43.0077,"RA_OF_ASC_NODE":39.3007,"ARG_OF_PERICENTER":280.0667,"MEAN_ANOMALY":79.9941,"EPHEMERIS_TYPE":0,"CLASSIFICATION_TYPE":"U","NORAD_CAT_ID":63977,"ELEMENT_SET_NO":999,"REV_AT_EPOCH":2165,"BSTAR":0.002026769,"MEAN_MOTION_DOT":0.00056009,"MEAN_MOTION_DDOT":0},{"OBJECT_NAME":"STARLINK-33642","OBJECT_ID":"2025-099AC","EPOCH":"2025-09-23T01:58:16.918464","MEAN_MOTION":15.27592622,"ECCENTRICITY":3.308e-5,"INCLINATION":43.0058,"RA_OF_ASC_NODE":39.2404,"ARG_OF_PERICENTER":15.5502,"MEAN_ANOMALY":344.536,"EPHEMERIS_TYPE":0,"CLASSIFICATION_TYPE":"U","NORAD_CAT_ID":63978,"ELEMENT_SET_NO":999,"REV_AT_EPOCH":2165,"BSTAR":0.0028024088,"MEAN_MOTION_DOT":0.00077699,"MEAN_MOTION_DDOT":0},{"OBJECT_NAME":"STARLINK-34045","OBJECT_ID":"2025-099AD","EPOCH":"2025-09-22T16:27:47.601504","MEAN_MOTION":15.27597069,"ECCENTRICITY":0.00021844,"INCLINATION":43.006,"RA_OF_ASC_NODE":41.4248,"ARG_OF_PERICENTER":272.0559,"MEAN_ANOMALY":88.0042,"EPHEMERIS_TYPE":0,"CLASSIFICATION_TYPE":"U","NORAD_CAT_ID":63979,"ELEMENT_SET_NO":999,"REV_AT_EPOCH":2159,"BSTAR":0.001631242,"MEAN_MOTION_DOT":0.00044924,"MEAN_MOTION_DDOT":0},{"OBJECT_NAME":"STARLINK-33871","OBJECT_ID":"2025-101A","EPOCH":"2025-09-23T04:24:07.030080","MEAN_MOTION":15.27611657,"ECCENTRICITY":9.447e-5,"INCLINATION":43.0057,"RA_OF_ASC_NODE":224.2611,"ARG_OF_PERICENTER":264.8145,"MEAN_ANOMALY":95.2599,"EPHEMERIS_TYPE":0,"CLASSIFICATION_TYPE":"U","NORAD_CAT_ID":63994,"ELEMENT_SET_NO":999,"REV_AT_EPOCH":2136,"BSTAR":0.0019627759,"MEAN_MOTION_DOT":0.00054199,"MEAN_MOTION_DDOT":0},{"OBJECT_NAME":"STARLINK-34154","OBJECT_ID":"2025-101B","EPOCH":"2025-09-23T05:17:33.373824","MEAN_MOTION":15.27640217,"ECCENTRICITY":0.00016949,"INCLINATION":43.0042,"RA_OF_ASC_NODE":223.6918,"ARG_OF_PERICENTER":265.6241,"MEAN_ANOMALY":94.4417,"EPHEMERIS_TYPE":0,"CLASSIFICATION_TYPE":"U","NORAD_CAT_ID":63995,"ELEMENT_SET_NO":999,"REV_AT_EPOCH":2144,"BSTAR":0.002152483,"MEAN_MOTION_DOT":0.00059559,"MEAN_MOTION_DDOT":0}]
